CHECKMATE 10            
1 57762U 23133F   26068.60852903  .00000067  00000+0  49049-4 0  9996
2 57762  80.9974 103.0212 0005039 278.4958  81.5627 13.85465032127247
SDA_1675                
1 65985U 25230M   26068.73353885  .00000235  00000+0  19794-3 0  9991
2 65985  81.2979 303.9400 0003716  72.4349 287.7214 13.84748964 20047
