[{"OBJECT_NAME":"CHECKMATE 10","OBJECT_ID":"2023-133F","EPOCH":"2026-03-09T14:36:16.908192","MEAN_MOTION":13.85465032,"ECCENTRICITY":0.0005039,"INCLINATION":80.9974,"RA_OF_ASC_NODE":103.0212,"ARG_OF_PERICENTER":278.4958,"MEAN_ANOMALY":81.5627,"EPHEMERIS_TYPE":0,"CLASSIFICATION_TYPE":"U","NORAD_CAT_ID":57762,"ELEMENT_SET_NO":999,"REV_AT_EPOCH":12724,"BSTAR":4.9049e-5,"MEAN_MOTION_DOT":6.7e-7,"MEAN_MOTION_DDOT":0},{"OBJECT_NAME":"SDA_1675","OBJECT_ID":"2025-230M","EPOCH":"2026-03-09T17:36:17.756640","MEAN_MOTION":13.84748964,"ECCENTRICITY":0.00037161,"INCLINATION":81.2979,"RA_OF_ASC_NODE":303.94,"ARG_OF_PERICENTER":72.4349,"MEAN_ANOMALY":287.7214,"EPHEMERIS_TYPE":0,"CLASSIFICATION_TYPE":"U","NORAD_CAT_ID":65985,"ELEMENT_SET_NO":999,"REV_AT_EPOCH":2004,"BSTAR":0.00019794423,"MEAN_MOTION_DOT":2.35e-6,"MEAN_MOTION_DDOT":0}]
